METHANESAT              
1 59101U 24043D   26032.10622061  .00004186  00000+0  36579-3 0  9991
2 59101  97.8236 162.7273 0012071 104.1802 256.0762 14.97273486104282
GOSAT-GW (IBUKI GW)     
1 64694U 25141A   26032.30466338  .00001104  00000+0  20311-3 0  9993
2 64694  98.0471 331.9137 0001576  84.8346 275.3038 14.67551137 31911
GHGSAT-C1               
1 46278U 20061G   26032.30692932  .00026094  00000+0  29962-3 0  9994
2 46278  97.2238 113.8712 0002017 147.6404 212.4978 15.62035217302201
GHGSAT-C12              
1 64529U 25135B   26032.08979256  .00003805  00000+0  18408-3 0  9990
2 64529  97.4610 148.3373 0003751 293.7001  66.3839 15.19187703 34152
GHGSAT-C13              
1 64548U 25135W   26032.02510036  .00003340  00000+0  15869-3 0  9994
2 64548  97.4636 148.6448 0000997 149.6600 210.4693 15.19912918 34165
GHGSAT-C2               
1 47509U 21006DA  26031.68444487  .00006617  00000+0  19140-3 0  9998
2 47509  97.2369  81.2932 0003838 312.2616  47.8302 15.35936540278889
GHGSAT-C3               
1 52737U 22057F   26032.30942747  .00007014  00000+0  22782-3 0  9994
2 52737  97.6370 173.2554 0005367 238.3657 121.7061 15.32252030204715
GHGSAT-C4               
1 52746U 22057Q   26032.32880390  .00007521  00000+0  24414-3 0  9998
2 52746  97.6298 172.2447 0005755 221.6525 138.4278 15.32241187204721
GHGSAT-C5               
1 52744U 22057N   26032.34641626  .00007349  00000+0  23869-3 0  9996
2 52744  97.6459 174.7087 0006306 234.5333 125.5320 15.32229053204721
GHGSAT-C6               
1 56204U 23054AC  26032.30676274  .00013299  00000+0  25047-3 0  9993
2 56204  97.3163 300.1271 0008357 160.0036 200.1544 15.48609942157390
GHGSAT-C7               
1 56209U 23054AH  26032.28633524  .00010836  00000+0  21874-3 0  9994
2 56209  97.3122 299.1704 0008696 156.5486 203.6162 15.46651447157369
GHGSAT-C8               
1 56186U 23054J   26032.27880171  .00014071  00000+0  26478-3 0  9999
2 56186  97.3129 299.5034 0005344 172.9479 187.1848 15.48644094157371
SENTINEL-5P             
1 42969U 17064A   26031.81155704  .00000086  00000+0  61887-4 0  9998
2 42969  98.7838 334.9669 0001170  86.0603 274.0707 14.19539249430211
ENMAP                   
1 52159U 22033C   26032.28346280  .00000730  00000+0  11619-3 0  9998
2 52159  97.9770 116.4712 0001514  76.0258 284.1119 14.74920720206622
PRISMA                  
1 44072U 19015A   26032.24550560  .00001577  00000+0  19720-3 0  9994
2 44072  97.8792 108.9685 0001241  88.7307 271.4049 14.83693592371894
SENTINEL-2A             
1 40697U 15028A   26032.26371963 -.00000086  00000+0 -16228-4 0  9990
2 40697  98.5645 109.0990 0001081  97.5031 262.6275 14.30817553554290
SENTINEL-2B             
1 42063U 17013A   26032.26339502  .00000102  00000+0  55559-4 0  9995
2 42063  98.5646 108.9842 0001099  92.6843 267.4465 14.30817076465206
SENTINEL-2C             
1 60989U 24157A   26032.15854519  .00000118  00000+0  61550-4 0  9992
2 60989  98.5687 108.9000 0001136  76.8387 283.2923 14.30810437 73533
LANDSAT 8               
1 39084U 13008A   26032.05966437  .00000435  00000+0  10667-3 0  9993
2 39084  98.1992 104.3715 0001287  93.8694 266.2651 14.57110617678071
LANDSAT 9               
1 49260U 21088A   26032.16280017  .00000434  00000+0  10645-3 0  9997
2 49260  98.2014 104.5239 0001292  92.6625 267.4722 14.57107536231190
